[{"OBJECT_NAME":"ONEWEB-0108","OBJECT_ID":"2021-025AL","EPOCH":"2026-03-09T19:35:39.732576","MEAN_MOTION":13.13469941,"ECCENTRICITY":0.00015083,"INCLINATION":87.9045,"RA_OF_ASC_NODE":339.9739,"ARG_OF_PERICENTER":75.3113,"MEAN_ANOMALY":284.8183,"EPHEMERIS_TYPE":0,"CLASSIFICATION_TYPE":"U","NORAD_CAT_ID":48076,"ELEMENT_SET_NO":999,"REV_AT_EPOCH":24060,"BSTAR":0.00093760627,"MEAN_MOTION_DOT":3.55e-6,"MEAN_MOTION_DDOT":0},{"OBJECT_NAME":"COSMOS 970 DEB","OBJECT_ID":"1977-121CF","EPOCH":"2026-02-27T09:36:07.197120","MEAN_MOTION":13.32021751,"ECCENTRICITY":0.01243262,"INCLINATION":64.8339,"RA_OF_ASC_NODE":114.3496,"ARG_OF_PERICENTER":308.3898,"MEAN_ANOMALY":50.6019,"EPHEMERIS_TYPE":0,"CLASSIFICATION_TYPE":"U","NORAD_CAT_ID":64970,"ELEMENT_SET_NO":999,"REV_AT_EPOCH":59609,"BSTAR":0.00079997193,"MEAN_MOTION_DOT":3.24e-6,"MEAN_MOTION_DDOT":0}]
